0 COSMOS 839 DEB
1 13946U 76067BE  13281.74024633 -.00000190  00000-0 -41855-3 0  7573
2 13946 066.0635 015.4119 0655027 135.4854 307.5065 12.48042686393807
0 COSMOS 839 DEB
1 13946U 76067BE  13287.51568341 -.00000161  00000-0 -32877-3 0  7597
2 13946 066.0634 004.0352 0654054 132.9925 336.2625 12.48042301394524
0 COSMOS 839 DEB
1 13946U 76067BE  13289.51894501 -.00000192  00000-0 -42727-3 0  7600
2 13946 066.0631 000.0891 0653687 132.1244 336.8181 12.48042304394775
0 COSMOS 839 DEB
1 13946U 76067BE  13290.53775391 -.00000025  00000-0  00000+0 0  7618
2 13946 066.0660 358.0880 0655235 131.6137 234.3357 12.48041927394909
0 COSMOS 839 DEB
1 13946U 76067BE  13291.52190566 -.00000198  00000-0 -44638-3 0  7614
2 13946 066.0630 356.1438 0653372 131.2505 336.0279 12.48041906395023
0 COSMOS 839 DEB
1 13946U 76067BE  13293.61476071 -.00000123  00000-0 -21198-3 0  7629
2 13946 066.0629 352.0219 0653145 130.3452 019.1215 12.48041770395288
0 COSMOS 839 DEB
1 13946U 76067BE  13295.68439247 -.00000129  00000-0 -23147-3 0  7635
2 13946 066.0628 347.9451 0652865 129.4421 317.8774 12.48040708395548
